NORAD_CAT_ID,OBJECT_NAME,OBJECT_TYPE,EPOCH,MEAN_MOTION,ECCENTRICITY,INCLINATION,RA_OF_ASC_NODE,ARG_OF_PERICENTER,MEAN_ANOMALY,BSTAR,MEAN_MOTION_DOT,MEAN_MOTION_DDOT,TLE_LINE0,TLE_LINE1,TLE_LINE2,SEMIMAJOR_AXIS,PERIOD,APOGEE,PERIGEE,DECAYED
51986.0,STARLINK-3645,PAYLOAD,2024-08-09 16:01:52,15.08828891,0.0001759,53.2155,109.319,90.4707,269.6487,-0.00013996,-2.514e-05,0.0,0 STARLINK-3645,1 51986U 22025AG  24222.66797112 -.00002514  00000-0 -13996-3 0  9996,2 51986  53.2155 109.3190 0001759  90.4707 269.6487 15.08828891135049,6917.914,95.438,540.996,538.562,0.0
51986.0,STARLINK-3645,PAYLOAD,2024-08-09 20:48:02,15.08826592,0.0001404,53.2154,108.4282,92.231,267.8843,-0.00015196,-2.705e-05,0.0,0 STARLINK-3645,1 51986U 22025AG  24222.86669343 -.00002705  00000-0 -15196-3 0  9998,2 51986  53.2154 108.4282 0001404  92.2310 267.8843 15.08826592133980,6917.921,95.438,540.758,538.815,0.0
51986.0,STARLINK-3645,PAYLOAD,2024-08-09 23:58:48,15.08838585,0.0001158,53.2161,107.8285,94.2933,265.8191,4.3622e-05,4.06e-06,0.0,0 STARLINK-3645,1 51986U 22025AG  24222.99916800  .00000406  00000-0  43622-4 0  9995,2 51986  53.2161 107.8285 0001158  94.2933 265.8191 15.08838585135096,6917.885,95.438,540.551,538.949,0.0
51986.0,STARLINK-3645,PAYLOAD,2024-08-10 22:14:11,15.08847271,0.0001125,53.2154,103.6663,94.7894,265.3227,0.00032421,4.877e-05,0.0,0 STARLINK-3645,1 51986U 22025AG  24223.92652666  .00004877  00000-0  32421-3 0  9996,2 51986  53.2154 103.6663 0001125  94.7894 265.3227 15.08847271134149,6917.858,95.437,540.501,538.945,0.0
51986.0,STARLINK-3645,PAYLOAD,2024-08-11 01:24:58,15.08853494,0.0001156,53.2155,103.0714,101.5042,258.608,0.0005908,9.131e-05,0.0,0 STARLINK-3645,1 51986U 22025AG  24224.05900581  .00009131  00000-0  59080-3 0  9991,2 51986  53.2155 103.0714 0001156 101.5042 258.6080 15.08853494135256,6917.839,95.437,540.504,538.904,0.0
51986.0,STARLINK-3645,PAYLOAD,2024-08-11 09:21:53,15.0887216,0.0001406,53.2155,101.5869,71.8385,288.2761,0.0010937,0.00017176,0.0,0 STARLINK-3645,1 51986U 22025AG  24224.39019944  .00017176  00000-0  10937-2 0  9997,2 51986  53.2155 101.5869 0001406  71.8385 288.2761 15.08872160135309,6917.782,95.436,540.62,538.674,0.0
51986.0,STARLINK-3645,PAYLOAD,2024-08-11 15:43:26,15.08833517,0.0001381,53.2155,100.3995,72.3508,287.7635,-0.00037652,-6.274e-05,0.0,0 STARLINK-3645,1 51986U 22025AG  24224.65516952 -.00006274  00000-0 -37652-3 0  9990,2 51986  53.2155 100.3995 0001381  72.3508 287.7635 15.08833517135342,6917.9,95.438,540.721,538.81,0.0
51986.0,STARLINK-3645,PAYLOAD,2024-08-11 22:04:58,15.08851397,0.0001702,53.2136,99.2112,69.6352,290.4822,0.00030968,4.645e-05,0.0,0 STARLINK-3645,1 51986U 22025AG  24224.92012428  .00004645  00000-0  30968-3 0  9990,2 51986  53.2136  99.2112 0001702  69.6352 290.4822 15.08851397134299,6917.846,95.437,540.888,538.533,0.0
51986.0,STARLINK-3645,PAYLOAD,2024-08-11 23:40:21,15.08856314,0.0001009,53.2155,98.9087,79.679,280.4316,0.00060405,9.343e-05,0.0,0 STARLINK-3645,1 51986U 22025AG  24224.98636260  .00009343  00000-0  60405-3 0  9991,2 51986  53.2155  98.9087 0001009  79.6790 280.4316 15.08856314135397,6917.831,95.437,540.394,538.998,0.0
51986.0,STARLINK-3645,PAYLOAD,2024-08-12 09:12:39,15.08872902,0.0001239,53.2171,97.1243,89.9711,270.1423,0.0012188,0.0001918,0.0,0 STARLINK-3645,1 51986U 22025AG  24225.38379513  .00019180  00000-0  12188-2 0  9995,2 51986  53.2171  97.1243 0001239  89.9711 270.1423 15.08872902134364,6917.78,95.435,540.502,538.788,0.0
51986.0,STARLINK-3645,PAYLOAD,2024-08-12 21:55:45,15.08877869,0.0001242,53.2159,94.7466,111.4673,248.6452,0.0035812,0.00057229,0.0,0 STARLINK-3645,1 51986U 22025AG  24225.91371576  .00057229  00000-0  35812-2 0  9990,2 51986  53.2159  94.7466 0001242 111.4673 248.6452 15.08877869134440,6917.765,95.435,540.489,538.77,0.0
51986.0,STARLINK-3645,PAYLOAD,2024-08-13 21:46:34,15.08841076,0.0001377,53.2152,90.29,97.6036,262.5113,0.0025422,0.00040405,0.0,0 STARLINK-3645,1 51986U 22025AG  24226.90734361  .00040405  00000-0  25422-2 0  9999,2 51986  53.2152  90.2900 0001377  97.6036 262.5113 15.08841076134590,6917.877,95.437,540.695,538.79,0.0
51986.0,STARLINK-3645,PAYLOAD,2024-08-14 02:32:44,15.08798737,0.000131,53.216,89.3963,84.5005,275.6137,0.0020779,0.00032899,0.0,0 STARLINK-3645,1 51986U 22025AG  24227.10606953  .00032899  00000-0  20779-2 0  9995,2 51986  53.2160  89.3963 0001310  84.5005 275.6137 15.08798737135716,6918.007,95.44,540.778,538.965,0.0
51986.0,STARLINK-3645,PAYLOAD,2024-08-14 05:43:30,15.08808502,0.0001246,53.216,88.8013,83.754,276.3594,0.00182,0.00028771,0.0,0 STARLINK-3645,1 51986U 22025AG  24227.23855227  .00028771  00000-0  18200-2 0  9999,2 51986  53.2160  88.8013 0001246  83.7540 276.3594 15.08808502134647,6917.977,95.44,540.704,538.98,0.0
51986.0,STARLINK-3645,PAYLOAD,2024-08-14 20:01:59,15.08856019,0.0001449,53.2162,86.1259,64.477,295.6372,0.0021627,0.00034314,0.0,0 STARLINK-3645,1 51986U 22025AG  24227.83471205  .00034314  00000-0  21627-2 0  9992,2 51986  53.2162  86.1259 0001449  64.4770 295.6372 15.08856019135823,6917.831,95.437,540.699,538.694,0.0
51986.0,STARLINK-3645,PAYLOAD,2024-08-14 21:37:21,15.08865478,0.0001254,53.2162,85.8254,77.2904,282.8228,0.0019517,0.00030932,0.0,0 STARLINK-3645,1 51986U 22025AG  24227.90094899  .00030932  00000-0  19517-2 0  9997,2 51986  53.2162  85.8254 0001254  77.2904 282.8228 15.08865478134746,6917.803,95.436,540.535,538.8,0.0
51986.0,STARLINK-3645,PAYLOAD,2024-08-15 07:09:40,15.08882724,0.0001244,53.2162,84.0414,80.419,279.6943,0.0014736,0.0002327,0.0,0 STARLINK-3645,1 51986U 22025AG  24228.29837975  .00023270  00000-0  14736-2 0  9995,2 51986  53.2162  84.0414 0001244  80.4190 279.6943 15.08882724134805,6917.75,95.435,540.475,538.754,0.0
51986.0,STARLINK-3645,PAYLOAD,2024-08-15 21:28:08,15.08860411,0.0001705,53.2163,81.3654,82.6169,277.5017,0.0011821,0.00018586,0.0,0 STARLINK-3645,1 51986U 22025AG  24228.89453766  .00018586  00000-0  11821-2 0  9999,2 51986  53.2163  81.3654 0001705  82.6169 277.5017 15.08860411135982,6917.818,95.436,540.862,538.504,0.0
51986.0,STARLINK-3645,PAYLOAD,2024-08-15 23:03:31,15.08853025,0.0001127,53.2162,81.0688,67.552,292.5591,0.0011904,0.00018715,0.0,0 STARLINK-3645,1 51986U 22025AG  24228.96077768  .00018715  00000-0  11904-2 0  9997,2 51986  53.2162  81.0688 0001127  67.5520 292.5591 15.08853025135994,6917.841,95.437,540.485,538.926,0.0
51986.0,STARLINK-3645,PAYLOAD,2024-08-16 21:18:55,15.08857109,0.0001654,53.2149,76.903,62.1216,297.9944,0.0012444,0.00019581,0.0,0 STARLINK-3645,1 51986U 22025AG  24229.88813811  .00019581  00000-0  12444-2 0  9998,2 51986  53.2149  76.9030 0001654  62.1216 297.9944 15.08857109135045,6917.828,95.436,540.837,538.549,0.0
51986.0,STARLINK-3645,PAYLOAD,2024-08-17 00:29:41,15.08850313,0.0001239,53.216,76.3126,79.3143,280.7988,0.00084166,0.00013136,0.0,0 STARLINK-3645,1 51986U 22025AG  24230.02061669  .00013136  00000-0  84166-3 0  9993,2 51986  53.2160  76.3126 0001239  79.3143 280.7988 15.08850313136157,6917.849,95.437,540.571,538.857,0.0
51986.0,STARLINK-3645,PAYLOAD,2024-08-17 13:12:46,15.08843761,0.0001771,53.2136,73.9338,66.5985,293.5194,0.00023612,3.472e-05,0.0,0 STARLINK-3645,1 51986U 22025AG  24230.55053821  .00003472  00000-0  23612-3 0  9993,2 51986  53.2136  73.9338 0001771  66.5985 293.5194 15.08843761136230,6917.869,95.437,540.959,538.509,0.0
51986.0,STARLINK-3645,PAYLOAD,2024-08-17 21:09:42,15.08842319,0.0001391,53.2152,72.4446,79.3918,280.7231,0.00014894,2.083e-05,0.0,0 STARLINK-3645,1 51986U 22025AG  24230.88173810  .00002083  00000-0  14894-3 0  9999,2 51986  53.2152  72.4446 0001391  79.3918 280.7231 15.08842319135190,6917.873,95.437,540.701,538.776,0.0
51986.0,STARLINK-3645,PAYLOAD,2024-08-18 13:03:33,15.08839166,0.0001316,53.2144,69.4712,83.1822,276.932,0.00013144,1.805e-05,0.0,0 STARLINK-3645,1 51986U 22025AG  24231.54414013  .00001805  00000-0  13144-3 0  9994,2 51986  53.2144  69.4712 0001316  83.1822 276.9320 15.08839166136381,6917.883,95.438,540.658,538.838,0.0
51986.0,STARLINK-3645,PAYLOAD,2024-08-18 21:00:29,15.08839075,0.0001217,53.2159,67.9839,92.4694,267.6437,0.00010455,1.376e-05,0.0,0 STARLINK-3645,1 51986U 22025AG  24231.87534083  .00001376  00000-0  10455-3 0  9995,2 51986  53.2159  67.9839 0001217  92.4694 267.6437 15.08839075135340,6917.883,95.438,540.59,538.906,0.0
51986.0,STARLINK-3645,PAYLOAD,2024-08-19 12:54:20,15.08836502,9.98e-05,53.216,65.0093,106.9084,253.2018,8.6329e-05,1.086e-05,0.0,0 STARLINK-3645,1 51986U 22025AG  24232.53774218  .00001086  00000-0  86329-4 0  9997,2 51986  53.2160  65.0093 0000998 106.9084 253.2018 15.08836502135441,6917.891,95.438,540.446,539.066,0.0
51986.0,STARLINK-3645,PAYLOAD,2024-08-19 22:26:39,15.08842072,0.0001212,53.2157,63.2277,92.3689,267.7442,0.0001476,2.062e-05,0.0,0 STARLINK-3645,1 51986U 22025AG  24232.93518085  .00002062  00000-0  14760-3 0  9993,2 51986  53.2157  63.2277 0001212  92.3689 267.7442 15.08842072136597,6917.874,95.437,540.578,538.901,0.0
51986.0,STARLINK-3645,PAYLOAD,2024-08-20 12:45:07,15.08843869,0.0001122,53.2152,60.5503,87.4923,272.6197,0.00017615,2.517e-05,0.0,0 STARLINK-3645,1 51986U 22025AG  24233.53133981  .00002517  00000-0  17615-3 0  9995,2 51986  53.2152  60.5503 0001122  87.4923 272.6197 15.08843869135596,6917.869,95.437,540.51,538.957,0.0
51986.0,STARLINK-3645,PAYLOAD,2024-08-20 22:17:26,15.08848512,0.0001345,53.2167,58.7637,105.8497,254.2644,0.0001755,2.507e-05,0.0,0 STARLINK-3645,1 51986U 22025AG  24233.92877617  .00002507  00000-0  17550-3 0  9996,2 51986  53.2167  58.7637 0001345 105.8497 254.2644 15.08848512135657,6917.854,95.437,540.65,538.789,0.0
51986.0,STARLINK-3645,PAYLOAD,2024-08-21 17:22:04,15.08837277,0.0001509,53.2176,55.1935,112.9454,247.1698,6.9236e-05,8.14e-06,0.0,0 STARLINK-3645,1 51986U 22025AG  24234.72366284  .00000814  00000-0  69236-4 0  9996,2 51986  53.2176  55.1935 0001509 112.9454 247.1698 15.08837277136863,6917.889,95.438,540.798,538.71,0.0
